{
  "norad_id": 66535,
  "name": "STARLINK-35514",
  "history": [
    {
      "epoch": "2026-03-28T13:06:16.692192Z",
      "apogee_km": 483.57391457303584,
      "perigee_km": 482.4528026044436,
      "latitude_deg": 1.0582175767395333e-05,
      "longitude_deg": 149.21953638894854,
      "height_km": 482.486910978473,
      "semi_major_axis_km": 6861.150358588739,
      "eccentricity": 8.17e-05,
      "inclination_deg": 43.0043,
      "raan_deg": 171.754,
      "arg_perigee_deg": 302.7254,
      "mean_anomaly_deg": 57.3519,
      "mean_motion_rev_day": 15.27591935
    },
    {
      "epoch": "2026-03-29T22:03:33.435936Z",
      "apogee_km": 483.8991600025738,
      "perigee_km": 482.11526250764746,
      "latitude_deg": -1.6880386831198202e-05,
      "longitude_deg": 5.792142368729203,
      "height_km": 482.61889535251316,
      "semi_major_axis_km": 6861.14421125511,
      "eccentricity": 0.00013,
      "inclination_deg": 43.004,
      "raan_deg": 163.9998,
      "arg_perigee_deg": 280.6856,
      "mean_anomaly_deg": 79.3849,
      "mean_motion_rev_day": 15.27593988
    },
    {
      "epoch": "2026-03-30T05:54:20.517120Z",
      "apogee_km": 484.1514713082406,
      "perigee_km": 481.9499906128849,
      "latitude_deg": 1.4528225238996691e-05,
      "longitude_deg": -114.07513608185259,
      "height_km": 482.9405820849481,
      "semi_major_axis_km": 6861.1877309605625,
      "eccentricity": 0.00016043,
      "inclination_deg": 43.0028,
      "raan_deg": 162.1509,
      "arg_perigee_deg": 264.1237,
      "mean_anomaly_deg": 95.9432,
      "mean_motion_rev_day": 15.27579454
    },
    {
      "epoch": "2026-03-30T13:45:07.590528Z",
      "apogee_km": 484.2200823692756,
      "perigee_km": 481.8292419764739,
      "latitude_deg": -2.579369941221368e-05,
      "longitude_deg": 126.0593415205474,
      "height_km": 482.8745853363588,
      "semi_major_axis_km": 6861.1616621728745,
      "eccentricity": 0.00017423,
      "inclination_deg": 43.003,
      "raan_deg": 160.3038,
      "arg_perigee_deg": 266.5171,
      "mean_anomaly_deg": 93.5481,
      "mean_motion_rev_day": 15.2758816
    },
    {
      "epoch": "2026-03-30T21:35:55.333536Z",
      "apogee_km": 484.87033446260284,
      "perigee_km": 481.4588952996846,
      "latitude_deg": -1.3782496978140647e-05,
      "longitude_deg": 6.193477290094351,
      "height_km": 483.03185340725025,
      "semi_major_axis_km": 6861.301614881144,
      "eccentricity": 0.0002486,
      "inclination_deg": 43.0056,
      "raan_deg": 158.4591,
      "arg_perigee_deg": 267.0056,
      "mean_anomaly_deg": 93.0511,
      "mean_motion_rev_day": 15.27541422
    },
    {
      "epoch": "2026-03-31T13:17:30.902496Z",
      "apogee_km": 483.8842299104581,
      "perigee_km": 482.23205412026164,
      "latitude_deg": 1.0345573818806326e-05,
      "longitude_deg": 126.45850252997364,
      "height_km": 482.6864596568089,
      "semi_major_axis_km": 6861.19514201536,
      "eccentricity": 0.0001204,
      "inclination_deg": 43.0007,
      "raan_deg": 154.7668,
      "arg_perigee_deg": 280.3419,
      "mean_anomaly_deg": 79.7297,
      "mean_motion_rev_day": 15.27576979
    },
    {
      "epoch": "2026-04-01T20:40:36.700032Z",
      "apogee_km": 483.46128148122807,
      "perigee_km": 482.43074681250255,
      "latitude_deg": 1.149042830758676e-05,
      "longitude_deg": 7.008515200000253,
      "height_km": 482.6794011299238,
      "semi_major_axis_km": 6861.083014146865,
      "eccentricity": 7.51e-05,
      "inclination_deg": 42.9997,
      "raan_deg": 147.3799,
      "arg_perigee_deg": 274.7551,
      "mean_anomaly_deg": 85.3215,
      "mean_motion_rev_day": 15.27614426
    },
    {
      "epoch": "2026-04-02T20:12:56.886048Z",
      "apogee_km": 483.68234540034973,
      "perigee_km": 482.21270109547095,
      "latitude_deg": 9.18378481403342e-06,
      "longitude_deg": 7.419595159979812,
      "height_km": 482.6315942721267,
      "semi_major_axis_km": 6861.0845232479105,
      "eccentricity": 0.0001071,
      "inclination_deg": 43.0017,
      "raan_deg": 141.8418,
      "arg_perigee_deg": 277.2349,
      "mean_anomaly_deg": 82.8381,
      "mean_motion_rev_day": 15.27613922
    },
    {
      "epoch": "2026-04-02T20:12:56.886912Z",
      "apogee_km": 483.682551232886,
      "perigee_km": 482.2124952629356,
      "latitude_deg": 1.153557401768204e-05,
      "longitude_deg": 7.419594058005246,
      "height_km": 482.63156835263845,
      "semi_major_axis_km": 6861.0845232479105,
      "eccentricity": 0.00010713,
      "inclination_deg": 43.0017,
      "raan_deg": 141.8418,
      "arg_perigee_deg": 277.2349,
      "mean_anomaly_deg": 82.8381,
      "mean_motion_rev_day": 15.27613922
    },
    {
      "epoch": "2026-04-03T11:54:29.829312Z",
      "apogee_km": 484.27514381731726,
      "perigee_km": 481.55638304927834,
      "latitude_deg": 5.0980817041942156e-05,
      "longitude_deg": 127.6947087776389,
      "height_km": 482.7955902908717,
      "semi_major_axis_km": 6861.0527634332975,
      "eccentricity": 0.00019813,
      "inclination_deg": 43.0012,
      "raan_deg": 138.1486,
      "arg_perigee_deg": 265.6731,
      "mean_anomaly_deg": 94.3895,
      "mean_motion_rev_day": 15.27624529
    },
    {
      "epoch": "2026-04-04T11:26:51.674208Z",
      "apogee_km": 484.6602877560699,
      "perigee_km": 481.4425276166339,
      "latitude_deg": 5.3684374549074545e-05,
      "longitude_deg": 128.09696189988819,
      "height_km": 483.03547409335977,
      "semi_major_axis_km": 6861.188407686352,
      "eccentricity": 0.00023449,
      "inclination_deg": 43.0047,
      "raan_deg": 132.6086,
      "arg_perigee_deg": 262.6377,
      "mean_anomaly_deg": 97.4209,
      "mean_motion_rev_day": 15.27579228
    },
    {
      "epoch": "2026-04-05T09:25:04.123776Z",
      "apogee_km": 484.64931276978405,
      "perigee_km": 481.48190719691047,
      "latitude_deg": -2.4147480483662793e-05,
      "longitude_deg": 152.47402354302875,
      "height_km": 482.78381283840673,
      "semi_major_axis_km": 6861.2026099833465,
      "eccentricity": 0.00023082,
      "inclination_deg": 43.0051,
      "raan_deg": 127.4399,
      "arg_perigee_deg": 272.163,
      "mean_anomaly_deg": 87.8957,
      "mean_motion_rev_day": 15.27574485
    },
    {
      "epoch": "2026-04-05T18:50:00.205440Z",
      "apogee_km": 484.3412112256101,
      "perigee_km": 481.6790861319223,
      "latitude_deg": -1.139510519164124e-05,
      "longitude_deg": 8.638178779426113,
      "height_km": 483.0311993641742,
      "semi_major_axis_km": 6861.147148678766,
      "eccentricity": 0.000194,
      "inclination_deg": 43.0049,
      "raan_deg": 125.2244,
      "arg_perigee_deg": 259.462,
      "mean_anomaly_deg": 100.6013,
      "mean_motion_rev_day": 15.27593007
    },
    {
      "epoch": "2026-04-06T02:40:47.123328Z",
      "apogee_km": 483.68167879716293,
      "perigee_km": 482.27171993194315,
      "latitude_deg": 5.2129767859648446e-05,
      "longitude_deg": -111.22778414269494,
      "height_km": 482.920099680268,
      "semi_major_axis_km": 6861.113699364553,
      "eccentricity": 0.00010275,
      "inclination_deg": 42.9992,
      "raan_deg": 123.3761,
      "arg_perigee_deg": 256.2835,
      "mean_anomaly_deg": 103.7903,
      "mean_motion_rev_day": 15.27604178
    },
    {
      "epoch": "2026-04-07T10:03:54.240192Z",
      "apogee_km": 483.9372770813052,
      "perigee_km": 482.13196560429697,
      "latitude_deg": 6.852595112299898e-05,
      "longitude_deg": 129.31952741307882,
      "height_km": 482.8490288103037,
      "semi_major_axis_km": 6861.171621342801,
      "eccentricity": 0.00013156,
      "inclination_deg": 43.0014,
      "raan_deg": 115.992,
      "arg_perigee_deg": 267.6105,
      "mean_anomaly_deg": 92.4597,
      "mean_motion_rev_day": 15.27584834
    },
    {
      "epoch": "2026-04-08T08:02:05.943264Z",
      "apogee_km": 483.9099384520896,
      "perigee_km": 482.1555373501087,
      "latitude_deg": -1.1418706809428954e-05,
      "longitude_deg": 153.69780417294814,
      "height_km": 482.7858046793999,
      "semi_major_axis_km": 6861.169737901099,
      "eccentricity": 0.00012785,
      "inclination_deg": 43.0016,
      "raan_deg": 110.8214,
      "arg_perigee_deg": 271.5492,
      "mean_anomaly_deg": 88.5213,
      "mean_motion_rev_day": 15.27585463
    },
    {
      "epoch": "2026-04-09T01:17:49.247808Z",
      "apogee_km": 483.49434551171817,
      "perigee_km": 482.5461335812124,
      "latitude_deg": -4.133249104972006e-05,
      "longitude_deg": -110.00299187863341,
      "height_km": 482.9056489510425,
      "semi_major_axis_km": 6861.1572395464655,
      "eccentricity": 6.91e-05,
      "inclination_deg": 43.0025,
      "raan_deg": 106.76,
      "arg_perigee_deg": 256.6986,
      "mean_anomaly_deg": 103.3788,
      "mean_motion_rev_day": 15.27589637
    },
    {
      "epoch": "2026-04-10T08:40:56.629056Z",
      "apogee_km": 484.04146625647354,
      "perigee_km": 481.9776333742884,
      "latitude_deg": -3.603261538017389e-06,
      "longitude_deg": 130.5404376323741,
      "height_km": 482.6007982494119,
      "semi_major_axis_km": 6861.14654981538,
      "eccentricity": 0.0001504,
      "inclination_deg": 43.0013,
      "raan_deg": 99.3731,
      "arg_perigee_deg": 280.3666,
      "mean_anomaly_deg": 79.7016,
      "mean_motion_rev_day": 15.27593207
    }
  ]
}